JILIN-1 KUANFU 01       
1 45016U 20003A   26193.78496862  .00001543  00000+0  96541-4 0  9993
2 45016  97.5021 267.2415 0009051 205.8151 154.2629 15.10859607359194
JILIN-1 KUANFU-01B      
1 49003U 21061A   26193.88829275  .00001938  00000+0  12384-3 0  9997
2 49003  97.5205 269.6043 0006255 344.9274  15.1768 15.09801032277224
JILIN-1 KUANFU 01C      
1 52443U 22048A   26193.81356409  .00001718  00000+0  11060-3 0  9998
2 52443  97.5251 270.5203 0017151 228.8173 131.1578 15.09593042231060
JILIN-1 KUANFU 02A      
1 57696U 23127A   26193.83477178  .00002150  00000+0  13319-3 0  9991
2 57696  97.5571 287.3292 0010122 245.8244 114.1927 15.10801361159508
JILIN-01 KUANFU 02B 1   
1 61189U 24169A   26193.84577368  .00002177  00000+0  14149-3 0  9994
2 61189  97.5582 282.9737 0001677 355.3459   4.7754 15.09050610 99693
JILIN-01 KUANFU 02B 2   
1 61190U 24169B   26193.82533067  .00001590  00000+0  10455-3 0  9996
2 61190  97.5571 282.3387 0004790 290.0462  70.0251 15.09010411 99699
JILIN-01 KUANFU 02B 3   
1 61191U 24169C   26193.83433390  .00001746  00000+0  11415-3 0  9996
2 61191  97.5569 282.7805 0012831 213.7962 146.2450 15.09049848 99691
JILIN-01 KUANFU 02B 4   
1 61192U 24169D   26193.80308814  .00002737  00000+0  17667-3 0  9992
2 61192  97.5531 282.2771 0013795 171.9068 188.2386 15.09032016 99693
JILIN-01 KUANFU 02B 5   
1 61193U 24169E   26193.85648146  .00002625  00000+0  16945-3 0  9997
2 61193  97.5582 283.1250 0013004 195.4032 164.6803 15.09067723 99704
JILIN-01 KUANFU 02B 6   
1 61194U 24169F   26193.81373755  .00001956  00000+0  12736-3 0  9995
2 61194  97.5559 282.9764 0015416 230.1117 129.8757 15.09024650 99709
