{"fetched_at":"2026-07-13T07:48:28.640Z","source":"https://celestrak.org/NORAD/elements/gp.php?NAME=JILIN&FORMAT=JSON","constellation":"jilin-1-kuanfu","records":[{"OBJECT_NAME":"JILIN-1 KUANFU 01","OBJECT_ID":"2020-003A","EPOCH":"2026-07-12T18:50:21.288768","CLASSIFICATION_TYPE":"U","MEAN_MOTION":15.10859607,"ECCENTRICITY":0.0009051,"INCLINATION":97.5021,"RA_OF_ASC_NODE":267.2415,"ARG_OF_PERICENTER":205.8151,"MEAN_ANOMALY":154.2629,"EPHEMERIS_TYPE":0,"NORAD_CAT_ID":45016,"ELEMENT_SET_NO":999,"REV_AT_EPOCH":35919,"BSTAR":0.000096541,"MEAN_MOTION_DOT":0.00001543,"MEAN_MOTION_DDOT":0},{"OBJECT_NAME":"JILIN-1 KUANFU-01B","OBJECT_ID":"2021-061A","EPOCH":"2026-07-12T21:19:08.493600","CLASSIFICATION_TYPE":"U","MEAN_MOTION":15.09801032,"ECCENTRICITY":0.0006255,"INCLINATION":97.5205,"RA_OF_ASC_NODE":269.6043,"ARG_OF_PERICENTER":344.9274,"MEAN_ANOMALY":15.1768,"EPHEMERIS_TYPE":0,"NORAD_CAT_ID":49003,"ELEMENT_SET_NO":999,"REV_AT_EPOCH":27722,"BSTAR":0.00012384,"MEAN_MOTION_DOT":0.00001938,"MEAN_MOTION_DDOT":0},{"OBJECT_NAME":"JILIN-1 KUANFU 01C","OBJECT_ID":"2022-048A","EPOCH":"2026-07-12T19:31:31.937376","CLASSIFICATION_TYPE":"U","MEAN_MOTION":15.09593042,"ECCENTRICITY":0.0017151,"INCLINATION":97.5251,"RA_OF_ASC_NODE":270.5203,"ARG_OF_PERICENTER":228.8173,"MEAN_ANOMALY":131.1578,"EPHEMERIS_TYPE":0,"NORAD_CAT_ID":52443,"ELEMENT_SET_NO":999,"REV_AT_EPOCH":23106,"BSTAR":0.0001106,"MEAN_MOTION_DOT":0.00001718,"MEAN_MOTION_DDOT":0},{"OBJECT_NAME":"JILIN-1 KUANFU 02A","OBJECT_ID":"2023-127A","EPOCH":"2026-07-12T20:02:04.281792","CLASSIFICATION_TYPE":"U","MEAN_MOTION":15.10801361,"ECCENTRICITY":0.0010122,"INCLINATION":97.5571,"RA_OF_ASC_NODE":287.3292,"ARG_OF_PERICENTER":245.8244,"MEAN_ANOMALY":114.1927,"EPHEMERIS_TYPE":0,"NORAD_CAT_ID":57696,"ELEMENT_SET_NO":999,"REV_AT_EPOCH":15950,"BSTAR":0.00013319,"MEAN_MOTION_DOT":0.0000215,"MEAN_MOTION_DDOT":0},{"OBJECT_NAME":"JILIN-01 KUANFU 02B 1","OBJECT_ID":"2024-169A","EPOCH":"2026-07-12T20:17:54.845952","CLASSIFICATION_TYPE":"U","MEAN_MOTION":15.0905061,"ECCENTRICITY":0.0001677,"INCLINATION":97.5582,"RA_OF_ASC_NODE":282.9737,"ARG_OF_PERICENTER":355.3459,"MEAN_ANOMALY":4.7754,"EPHEMERIS_TYPE":0,"NORAD_CAT_ID":61189,"ELEMENT_SET_NO":999,"REV_AT_EPOCH":9969,"BSTAR":0.00014149,"MEAN_MOTION_DOT":0.00002177,"MEAN_MOTION_DDOT":0},{"OBJECT_NAME":"JILIN-01 KUANFU 02B 2","OBJECT_ID":"2024-169B","EPOCH":"2026-07-12T19:48:28.569888","CLASSIFICATION_TYPE":"U","MEAN_MOTION":15.09010411,"ECCENTRICITY":0.000479,"INCLINATION":97.5571,"RA_OF_ASC_NODE":282.3387,"ARG_OF_PERICENTER":290.0462,"MEAN_ANOMALY":70.0251,"EPHEMERIS_TYPE":0,"NORAD_CAT_ID":61190,"ELEMENT_SET_NO":999,"REV_AT_EPOCH":9969,"BSTAR":0.00010455,"MEAN_MOTION_DOT":0.0000159,"MEAN_MOTION_DDOT":0},{"OBJECT_NAME":"JILIN-01 KUANFU 02B 3","OBJECT_ID":"2024-169C","EPOCH":"2026-07-12T20:01:26.448960","CLASSIFICATION_TYPE":"U","MEAN_MOTION":15.09049848,"ECCENTRICITY":0.0012831,"INCLINATION":97.5569,"RA_OF_ASC_NODE":282.7805,"ARG_OF_PERICENTER":213.7962,"MEAN_ANOMALY":146.245,"EPHEMERIS_TYPE":0,"NORAD_CAT_ID":61191,"ELEMENT_SET_NO":999,"REV_AT_EPOCH":9969,"BSTAR":0.00011415,"MEAN_MOTION_DOT":0.00001746,"MEAN_MOTION_DDOT":0},{"OBJECT_NAME":"JILIN-01 KUANFU 02B 4","OBJECT_ID":"2024-169D","EPOCH":"2026-07-12T19:16:26.815296","CLASSIFICATION_TYPE":"U","MEAN_MOTION":15.09032016,"ECCENTRICITY":0.0013795,"INCLINATION":97.5531,"RA_OF_ASC_NODE":282.2771,"ARG_OF_PERICENTER":171.9068,"MEAN_ANOMALY":188.2386,"EPHEMERIS_TYPE":0,"NORAD_CAT_ID":61192,"ELEMENT_SET_NO":999,"REV_AT_EPOCH":9969,"BSTAR":0.00017667,"MEAN_MOTION_DOT":0.00002737,"MEAN_MOTION_DDOT":0},{"OBJECT_NAME":"JILIN-01 KUANFU 02B 5","OBJECT_ID":"2024-169E","EPOCH":"2026-07-12T20:33:19.998144","CLASSIFICATION_TYPE":"U","MEAN_MOTION":15.09067723,"ECCENTRICITY":0.0013004,"INCLINATION":97.5582,"RA_OF_ASC_NODE":283.125,"ARG_OF_PERICENTER":195.4032,"MEAN_ANOMALY":164.6803,"EPHEMERIS_TYPE":0,"NORAD_CAT_ID":61193,"ELEMENT_SET_NO":999,"REV_AT_EPOCH":9970,"BSTAR":0.00016945,"MEAN_MOTION_DOT":0.00002625,"MEAN_MOTION_DDOT":0},{"OBJECT_NAME":"JILIN-01 KUANFU 02B 6","OBJECT_ID":"2024-169F","EPOCH":"2026-07-12T19:31:46.924320","CLASSIFICATION_TYPE":"U","MEAN_MOTION":15.0902465,"ECCENTRICITY":0.0015416,"INCLINATION":97.5559,"RA_OF_ASC_NODE":282.9764,"ARG_OF_PERICENTER":230.1117,"MEAN_ANOMALY":129.8757,"EPHEMERIS_TYPE":0,"NORAD_CAT_ID":61194,"ELEMENT_SET_NO":999,"REV_AT_EPOCH":9970,"BSTAR":0.00012736,"MEAN_MOTION_DOT":0.00001956,"MEAN_MOTION_DDOT":0}]}
